[{"OBJECT_NAME":"SENTINEL-2C","OBJECT_ID":"2024-157A","EPOCH":"2026-03-09T19:14:47.154624","MEAN_MOTION":14.30814287,"ECCENTRICITY":7.601e-5,"INCLINATION":98.5688,"RA_OF_ASC_NODE":145.0121,"ARG_OF_PERICENTER":103.4918,"MEAN_ANOMALY":256.635,"EPHEMERIS_TYPE":0,"CLASSIFICATION_TYPE":"U","NORAD_CAT_ID":60989,"ELEMENT_SET_NO":999,"REV_AT_EPOCH":7877,"BSTAR":7.7072514e-5,"MEAN_MOTION_DOT":1.58e-6,"MEAN_MOTION_DDOT":0},{"OBJECT_NAME":"THOR ABLESTAR DEB","OBJECT_ID":"1961-015BM","EPOCH":"2026-03-09T15:12:22.126752","MEAN_MOTION":14.38261255,"ECCENTRICITY":0.0106649,"INCLINATION":66.7963,"RA_OF_ASC_NODE":150.3493,"ARG_OF_PERICENTER":290.7027,"MEAN_ANOMALY":68.267,"EPHEMERIS_TYPE":0,"CLASSIFICATION_TYPE":"U","NORAD_CAT_ID":225,"ELEMENT_SET_NO":999,"REV_AT_EPOCH":34341,"BSTAR":0.00048442,"MEAN_MOTION_DOT":1.485e-5,"MEAN_MOTION_DDOT":0}]
